{"fetched_at":"2026-03-30T06:02:59Z","count":15439,"tles":[{"name":"STARLINK-3587","line1":"1 51892U 22022AS  26087.89486798  .00001362  00000+0  10363-3 0  9992","line2":"2 51892  53.2171 272.9069 0001310  91.3909 268.7233 15.08842369226149","category":"Starlink"}]}